[{"OBJECT_NAME":"STARLINK-1361","OBJECT_ID":"2020-025AN","EPOCH":"2026-03-09T22:44:55.848768","MEAN_MOTION":15.47742463,"ECCENTRICITY":0.00077177,"INCLINATION":53.0509,"RA_OF_ASC_NODE":72.6747,"ARG_OF_PERICENTER":32.9629,"MEAN_ANOMALY":327.1858,"EPHEMERIS_TYPE":0,"CLASSIFICATION_TYPE":"U","NORAD_CAT_ID":45567,"ELEMENT_SET_NO":999,"REV_AT_EPOCH":32559,"BSTAR":0.0019136745,"MEAN_MOTION_DOT":0.00101742,"MEAN_MOTION_DDOT":0},{"OBJECT_NAME":"TRANSPORTER-12 OBJECT M","OBJECT_ID":"2025-009M","EPOCH":"2026-03-09T18:04:47.718048","MEAN_MOTION":15.47061993,"ECCENTRICITY":0.00032421,"INCLINATION":97.3973,"RA_OF_ASC_NODE":155.5568,"ARG_OF_PERICENTER":277.4254,"MEAN_ANOMALY":82.6627,"EPHEMERIS_TYPE":0,"CLASSIFICATION_TYPE":"U","NORAD_CAT_ID":62620,"ELEMENT_SET_NO":999,"REV_AT_EPOCH":6401,"BSTAR":0.0012092912,"MEAN_MOTION_DOT":0.00061492,"MEAN_MOTION_DDOT":0}]
